SL-8 R/B                
1 19257U 88053B   26076.53231403  .00000280  00000+0  99320-4 0  9996
2 19257  74.0450  98.0088 0021534 276.2738 245.9432 14.38920891977725
COSMOS 1975             
1 19573U 88093A   26076.12425647  .00004627  00000+0  16695-3 0  9993
2 19573  82.5171 110.2205 0012790 138.7497 221.4711 15.28173282 20548
SL-14 R/B               
1 19574U 88093B   26076.87826477  .00000516  00000+0  56494-4 0  9997
2 19574  82.5322  34.3571 0021105  15.4896  40.8354 14.85666600  2238
SL-16 R/B               
1 19650U 88102B   26076.60412135  .00000027  00000+0  37591-4 0  9990
2 19650  70.9991 134.8452 0014520 349.2247  10.8563 14.16155986928017
INTERCOSMOS 24          
1 20261U 89080A   26076.74556526  .00000582  00000+0  17324-3 0  9991
2 20261  82.6017  99.1570 1186667 274.1025  72.5597 12.59569765667812
SL-14 R/B               
1 20262U 89080C   26076.55779293  .00000479  00000+0  13762-3 0  9996
2 20262  82.5968 168.1372 1230759 166.7724 196.9016 12.50502604661134
DELTA 1 R/B             
1 20323U 89089B   26076.82895167  .00000349  00000+0  94653-4 0  9997
2 20323  97.0700 282.9728 0070718  96.7451 264.1801 14.50670074896917
ARIANE 40 R/B           
1 20443U 90005H   26076.59652082  .00000241  00000+0  90262-4 0  9994
2 20443  98.3066 137.0218 0010342 174.4338 185.6968 14.39875714893944
DELTA 2 R/B(1)          
1 20453U 90008B   26076.84109723  .00047486  00000+0  53989-3 0  9991
2 20453  35.6029 121.3131 0082404 334.1044  25.5582 15.57035785927405
COSMOS 2058             
1 20465U 90010A   26076.85785259  .00003149  00000+0  18478-3 0  9994
2 20465  82.4668  39.3783 0008238 316.2292  43.8284 15.11393721943471
SL-14 R/B               
1 20466U 90010B   26076.78046929  .00000429  00000+0  49105-4 0  9991
2 20466  82.4987 259.7863 0018322 273.5806  86.3314 14.83576158929682
SL-14 R/B               
1 20511U 90018B   26076.87359243  .00000433  00000+0  51247-4 0  9991
2 20511  82.5218 215.4407 0017520  67.2365 293.0698 14.82153577923794
HST                     
1 20580U 90037B   26076.83763557  .00006018  00000+0  19603-3 0  9995
2 20580  28.4724 344.4119 0001653 210.6835 149.3664 15.29612827774565
SL-16 R/B               
1 20625U 90046B   26076.82675713  .00000046  00000+0  48455-4 0  9993
2 20625  70.9971 280.8239 0016131 288.7722  71.1650 14.15011134849541
COSMOS 2084             
1 20663U 90055A   26076.89080022  .00001704  00000+0  13099-3 0  9992
2 20663  62.7906 307.6069 0015794 192.2537 167.8182 15.05696107937557
SL-6 R/B(2)             
1 20666U 90055D   26076.41915128  .00001776  00000+0  14294-3 0  9994
2 20666  62.7822 227.5634 0026034 348.8994  11.1527 15.03633155939356
SL-8 R/B                
1 20775U 90078B   26076.83990360  .00010550  00000+0  31121-3 0  9995
2 20775  82.9000 243.9781 0360457 346.5670  12.6136 14.89329753810517
